0 CZ-4 DEB
1 37618U 90081DE  13277.69200468  .00040713  00000-0  39120-2 0  2218
2 37618 098.7852 227.4603 0017196 093.0912 028.3799 14.92786445514411
0 CZ-4 DEB
1 37618U 90081DE  13279.70217097  .00043997  00000-0  42118-2 0  2227
2 37618 098.7878 229.7017 0017254 086.8629 031.3930 14.92910389514713
0 CZ-4 DEB
1 37618U 90081DE  13280.09266469  .00041197  00000-0  39408-2 0  2237
2 37618 098.7885 230.1364 0017529 085.7685 329.9765 14.92957100514766
0 CZ-4 DEB
1 37618U 90081DE  13282.10449311  .00080334  00000-0  76004-2 0  2240
2 37618 098.7868 232.3833 0017309 081.5030 341.2021 14.93144378515068
0 CZ-4 DEB
1 37618U 90081DE  13283.63409230  .00047299  00000-0  45066-2 0  2253
2 37618 098.7860 234.0883 0017487 081.6387 278.7319 14.93295891513224
0 CZ-4 DEB
1 37618U 90081DE  13283.65717711  .00070988  00000-0  66953-2 0  2250
2 37618 098.7858 234.1155 0017687 077.7785 046.6517 14.93319671515300
0 CZ-4 DEB
1 37618U 90081DE  13285.11847400  .00052766  00000-0  49727-2 0  2267
2 37618 098.7843 235.7483 0017226 075.2619 340.7362 14.93473184515512
0 CZ-4 DEB
1 37618U 90081DE  13287.12842772  .00053984  00000-0  50625-2 0  2270
2 37618 098.7845 237.9943 0016702 070.2317 346.5201 14.93666839515817
0 CZ-4 DEB
1 37618U 90081DE  13287.67677203  .00077738  00000-0  72507-2 0  2282
2 37618 098.7846 238.6069 0016568 069.3248 054.2897 14.93734313515904
0 CZ-4 DEB
1 37618U 90081DE  13289.07172718  .00082696  00000-0  76650-2 0  2292
2 37618 098.7841 240.1647 0016843 067.2234 353.7480 14.93948518516109
0 CZ-4 DEB
1 37618U 90081DE  13289.68611347  .00084784  00000-0  78434-2 0  2309
2 37618 098.7834 240.8502 0017100 066.7672 056.6243 14.94009031516201
0 CZ-4 DEB
1 37618U 90081DE  13290.69034900  .00086852  00000-0  80024-2 0  2313
2 37618 098.7832 241.9722 0017240 065.2283 056.4512 14.94154067516355
